[{"OBJECT_NAME":"STARLINK-34701","OBJECT_ID":"2025-158X","EPOCH":"2026-03-09T13:58:41.940768","MEAN_MOTION":15.05648745,"ECCENTRICITY":0.0001818,"INCLINATION":97.602,"RA_OF_ASC_NODE":294.0414,"ARG_OF_PERICENTER":77.0998,"MEAN_ANOMALY":283.0432,"EPHEMERIS_TYPE":0,"CLASSIFICATION_TYPE":"U","NORAD_CAT_ID":64953,"ELEMENT_SET_NO":999,"REV_AT_EPOCH":3534,"BSTAR":0.00015816,"MEAN_MOTION_DOT":2.222e-5,"MEAN_MOTION_DDOT":0},{"OBJECT_NAME":"CZ-6A DEB","OBJECT_ID":"2022-151CD","EPOCH":"2026-03-09T04:34:52.178880","MEAN_MOTION":15.04926808,"ECCENTRICITY":0.00436133,"INCLINATION":98.6267,"RA_OF_ASC_NODE":153.8749,"ARG_OF_PERICENTER":159.2339,"MEAN_ANOMALY":201.0669,"EPHEMERIS_TYPE":0,"CLASSIFICATION_TYPE":"U","NORAD_CAT_ID":54334,"ELEMENT_SET_NO":999,"REV_AT_EPOCH":17669,"BSTAR":0.0057373504,"MEAN_MOTION_DOT":0.00083812,"MEAN_MOTION_DDOT":0}]
